#aV2021 11 12  0  0  0.00000000     288 DD+AD WGS84 FIT  NGA
## 2183 432000.00000000   300.00000000 59530 0.0000000000000
+   32     1  2  3  4  5  6  7  8  9 10 11 12 13 14 15 16 17
+         18 19 20 21 22 23 24 25 26 27 28 29 30 31 32  0  0
+          0  0  0  0  0  0  0  0  0  0  0  0  0  0  0  0  0
+          0  0  0  0  0  0  0  0  0  0  0  0  0  0  0  0  0
+          0  0  0  0  0  0  0  0  0  0  0  0  0  0  0  0  0
++         2  2  2  2  2  2  2  2  2  2  2  2  2  2  2  2  2
++         2  2  2  2  2  2  2  2  2  2  2  2  2  2  2  0  0
++         0  0  0  0  0  0  0  0  0  0  0  0  0  0  0  0  0
++         0  0  0  0  0  0  0  0  0  0  0  0  0  0  0  0  0
++         0  0  0  0  0  0  0  0  0  0  0  0  0  0  0  0  0
%c cc cc ccc ccc cccc cccc cccc cccc ccccc ccccc ccccc ccccc
%c cc cc ccc ccc cccc cccc cccc cccc ccccc ccccc ccccc ccccc
%f  0.0000000  0.000000000  0.00000000000  0.000000000000000
%f  0.0000000  0.000000000  0.00000000000  0.000000000000000
%i    0    0    0    0      0      0      0      0         0
%i    0    0    0    0      0      0      0      0         0
/*      NGA, ST. LOUIS,MO.                                  
/*   EPHEMERIS COMPUTED FROM 2 DAYS OF DATA                 
/*   EPOCHA v7 SMOOTHER                                     
/*   G2139 IERS2010 SATIGS SATAPC                           
*  2021 11 12 17 55  0.00000000
P  1 -14370.998196   2341.614899  21947.247969    512.731517                    
V  1  -6748.052190 -27641.333387  -1127.306378     -0.105149                    
P  2  14346.914182  19122.144677 -10820.035388   -641.706855                    
V  2   2264.560348  14812.343153  27608.685526     -0.015896                    
P  3 -21617.851447  10359.771854  11223.097850    -11.872498                    
V  3   8770.026765 -11675.507588  27509.303228     -0.093586                    
P  4 -23791.643522   1095.509993 -11832.345845   -201.996410                    
V  4 -13584.475449  -6771.600482  26613.491507      0.008519                    
P  5  16949.486348   2995.616750 -20432.288196    -60.835210                    
V  5 -16912.358900  19166.327346 -11161.691613     -0.012905                    
P  6   5456.905009  25919.912430   1524.457750    116.281789                    
V  6  -2454.363768  -1296.801616  32260.676157      0.090800                    
P  7  -7845.037919  18382.985282 -16870.645740    277.021368                    
V  7  -7609.313244 -21154.147148 -19579.666767      0.054292                    
P  8 -26004.028108  -6162.421378    886.097448    -43.892742                    
V  8   -486.796101  -2599.247398 -31620.013119     -0.015223                    
P  9 -15270.103141  10155.751022 -19296.929715   -361.752510                    
V  9 -23215.941252  -7502.367839  14449.180732      0.002306                    
P 10   7707.836529 -21066.552397  14111.509973   -244.621171                    
V 10  14165.409448 -10983.936512 -24632.203580     -0.084588                    
P 11  11873.470993  21100.367611 -10948.260033     19.588232                    
V 11    276.412321  14088.248483  27455.058663     -0.015309                    
P 12  22062.157782  -7665.314166  12265.672545   -125.340153                    
V 12 -10798.575684  12025.681871  26527.008477     -0.055450                    
P 13  22453.828560  13482.156541  -5039.638451    213.591663                    
V 13  -6609.539898   -271.572091 -30964.595671      0.056765                    
P 14  -8713.718862  20927.083268  13793.714140    -37.005793                    
V 14 -14642.311351   9964.559467 -24419.977469     -0.069360                    
P 15  26488.282819   3466.453325    818.100638   -106.978419                    
V 15    945.380321   3721.905927 -30804.999010      0.028047                    
P 16 -14529.695327  -7046.054486 -21421.428346   -422.977459                    
V 16  20320.053570 -16999.681133  -7835.355046     -0.064303                    
P 17  -1441.712334  15219.237552  22158.515120    532.707427                    
V 17 -25603.118305  -8658.094541   4389.041981      0.053441                    
P 18   7083.647937 -19515.446495 -16514.071347    296.636480                    
V 18   6417.288273  20042.476753 -21036.705346     -0.057960                    
P 19   8357.170110  16806.919743  18596.704534     78.356056                    
V 19 -22762.510828  -7870.703994  16937.716464      0.049894                    
P 20   9344.979015  13199.431435 -21121.926614    518.161695                    
V 20 -16563.341017  21091.970902   5595.071047     -0.002040                    
P 21 -17112.437715  -6690.680075  20057.691513    150.799977                    
V 21  -6876.918272 -22824.870325 -13401.324446      0.011482                    
P 22 -19704.088547   3591.198341  17513.770107   -466.455035                    
V 22  12444.408373 -18340.453702  18142.574669      0.090763                    
P 23  16459.978703 -20475.301517   3563.991952     33.778137                    
V 23   5108.121147  -1394.618048 -31499.860483     -0.044358                    
P 24  16592.534412   2035.557743  20439.134893    266.268058                    
V 24   7666.021728  25481.350643  -8235.816808      0.041644                    
P 25  20130.018507 -16768.182587   3071.522946    239.517390                    
V 25   -854.941696   5203.681652  31573.878637      0.059545                    
P 26  -3348.866935 -17504.542535 -19668.053291    154.655692                    
V 26  18135.788654 -17273.740323  12619.136637      0.038192                    
P 27 -21901.813666 -12543.933835  -9045.190410   -218.328137                    
V 27  11186.313693   1225.581839 -29013.532134     -0.047047                    
P 28  -2346.198988  18809.862152  19232.840145    464.184154                    
V 28 -18678.002858  13780.370331 -16010.197211     -0.074360                    
P 29  18989.181041  -5688.519132 -17748.221263   -439.654381                    
V 29  20614.211544   8800.445650  19215.879436     -0.052564                    
P 30   -736.309321  24956.440725  -8634.037205   -490.767966                    
V 30  -5911.987720 -10093.028102 -28681.503733     -0.032405                    
P 31  -6614.783002 -25434.913616  -1113.189804   -149.807099                    
V 31   3009.034679  -2024.574621  31912.835327     -0.019214                    
P 32  -3654.581208 -16227.979607  20859.809703    -21.159782                    
V 32  25461.246582   6198.875619   9154.805024     -0.047105                    
EOF
